CCSDS_OMM_VERS = 2.0
CREATION_DATE  = 
ORIGINATOR     = 

OBJECT_NAME    = E-KAGAKU-1
OBJECT_ID      = 1998-067XQ
CENTER_NAME    = EARTH
REF_FRAME      = TEME
TIME_SYSTEM    = UTC
MEAN_ELEMENT_THEORY = SGP/SGP4

EPOCH          = 2026-03-13T07:30:40.951008
MEAN_MOTION    = 15.81842071
ECCENTRICITY   = .00056964
INCLINATION    = 51.6233
RA_OF_ASC_NODE = 38.5579
ARG_OF_PERICENTER = 99.5179
MEAN_ANOMALY   = 260.6467

EPHEMERIS_TYPE = 0
CLASSIFICATION_TYPE = U
NORAD_CAT_ID   = 65943
ELEMENT_SET_NO = 999
REV_AT_EPOCH   = 2407
BSTAR          = .11129093E-2
MEAN_MOTION_DOT = .236005E-2
MEAN_MOTION_DDOT = 0

CCSDS_OMM_VERS = 2.0
CREATION_DATE  = 
ORIGINATOR     = 

OBJECT_NAME    = HRC MONOBLOCK CAMERA
OBJECT_ID      = 1998-067XR
CENTER_NAME    = EARTH
REF_FRAME      = TEME
TIME_SYSTEM    = UTC
MEAN_ELEMENT_THEORY = SGP/SGP4

EPOCH          = 2026-03-13T06:46:18.241248
MEAN_MOTION    = 15.62620622
ECCENTRICITY   = .00038167
INCLINATION    = 51.6278
RA_OF_ASC_NODE = 47.3965
ARG_OF_PERICENTER = 109.8372
MEAN_ANOMALY   = 250.3034

EPHEMERIS_TYPE = 0
CLASSIFICATION_TYPE = U
NORAD_CAT_ID   = 66052
ELEMENT_SET_NO = 999
REV_AT_EPOCH   = 2295
BSTAR          = .61502343E-3
MEAN_MOTION_DOT = .55964E-3
MEAN_MOTION_DDOT = 0

CCSDS_OMM_VERS = 2.0
CREATION_DATE  = 
ORIGINATOR     = 

OBJECT_NAME    = HTV-X1
OBJECT_ID      = 2025-241A
CENTER_NAME    = EARTH
REF_FRAME      = TEME
TIME_SYSTEM    = UTC
MEAN_ELEMENT_THEORY = SGP/SGP4

EPOCH          = 2026-03-13T10:12:45.513792
MEAN_MOTION    = 15.22885644
ECCENTRICITY   = .00057602
INCLINATION    = 51.6353
RA_OF_ASC_NODE = 55.0787
ARG_OF_PERICENTER = 183.8769
MEAN_ANOMALY   = 176.2164

EPHEMERIS_TYPE = 0
CLASSIFICATION_TYPE = U
NORAD_CAT_ID   = 66174
ELEMENT_SET_NO = 999
REV_AT_EPOCH   = 2152
BSTAR          = .62686623E-3
MEAN_MOTION_DOT = .14595E-3
MEAN_MOTION_DDOT = 0

CCSDS_OMM_VERS = 2.0
CREATION_DATE  = 
ORIGINATOR     = 

OBJECT_NAME    = SZ-21 MODULE
OBJECT_ID      = 2025-246C
CENTER_NAME    = EARTH
REF_FRAME      = TEME
TIME_SYSTEM    = UTC
MEAN_ELEMENT_THEORY = SGP/SGP4

EPOCH          = 2026-03-13T13:47:50.452800
MEAN_MOTION    = 15.68874146
ECCENTRICITY   = .00010106
INCLINATION    = 41.4731
RA_OF_ASC_NODE = 179.4377
ARG_OF_PERICENTER = 309.0341
MEAN_ANOMALY   = 51.0410

EPHEMERIS_TYPE = 0
CLASSIFICATION_TYPE = U
NORAD_CAT_ID   = 66515
ELEMENT_SET_NO = 999
REV_AT_EPOCH   = 1868
BSTAR          = .36004804E-3
MEAN_MOTION_DOT = .42463E-3
MEAN_MOTION_DDOT = 0

CCSDS_OMM_VERS = 2.0
CREATION_DATE  = 
ORIGINATOR     = 

OBJECT_NAME    = SHENZHOU-22
OBJECT_ID      = 2025-272A
CENTER_NAME    = EARTH
REF_FRAME      = TEME
TIME_SYSTEM    = UTC
MEAN_ELEMENT_THEORY = SGP/SGP4

EPOCH          = 2026-03-13T13:18:56.691648
MEAN_MOTION    = 15.60878289
ECCENTRICITY   = .00067395
INCLINATION    = 41.4662
RA_OF_ASC_NODE = 184.6407
ARG_OF_PERICENTER = 297.0069
MEAN_ANOMALY   = 63.0081

EPHEMERIS_TYPE = 0
CLASSIFICATION_TYPE = U
NORAD_CAT_ID   = 66645
ELEMENT_SET_NO = 999
REV_AT_EPOCH   = 26752
BSTAR          = .35349736E-3
MEAN_MOTION_DOT = .30215E-3
MEAN_MOTION_DDOT = 0

CCSDS_OMM_VERS = 2.0
CREATION_DATE  = 
ORIGINATOR     = 

OBJECT_NAME    = SOYUZ-MS 28
OBJECT_ID      = 2025-275A
CENTER_NAME    = EARTH
REF_FRAME      = TEME
TIME_SYSTEM    = UTC
MEAN_ELEMENT_THEORY = SGP/SGP4

EPOCH          = 2026-03-13T09:14:46.936608
MEAN_MOTION    = 15.48625615
ECCENTRICITY   = .00079096
INCLINATION    = 51.6324
RA_OF_ASC_NODE = 54.0842
ARG_OF_PERICENTER = 188.2233
MEAN_ANOMALY   = 171.8627

EPHEMERIS_TYPE = 0
CLASSIFICATION_TYPE = U
NORAD_CAT_ID   = 66664
ELEMENT_SET_NO = 999
REV_AT_EPOCH   = 55452
BSTAR          = .19895216E-3
MEAN_MOTION_DOT = .10392E-3
MEAN_MOTION_DDOT = 0

CCSDS_OMM_VERS = 2.0
CREATION_DATE  = 
ORIGINATOR     = 

OBJECT_NAME    = DUPLEX
OBJECT_ID      = 1998-067XS
CENTER_NAME    = EARTH
REF_FRAME      = TEME
TIME_SYSTEM    = UTC
MEAN_ELEMENT_THEORY = SGP/SGP4

EPOCH          = 2026-03-13T10:31:48.367200
MEAN_MOTION    = 15.56488826
ECCENTRICITY   = .00026642
INCLINATION    = 51.6291
RA_OF_ASC_NODE = 50.6945
ARG_OF_PERICENTER = 127.4743
MEAN_ANOMALY   = 232.6492

EPHEMERIS_TYPE = 0
CLASSIFICATION_TYPE = U
NORAD_CAT_ID   = 66906
ELEMENT_SET_NO = 999
REV_AT_EPOCH   = 1571
BSTAR          = .42282907E-3
MEAN_MOTION_DOT = .30156E-3
MEAN_MOTION_DDOT = 0

CCSDS_OMM_VERS = 2.0
CREATION_DATE  = 
ORIGINATOR     = 

OBJECT_NAME    = ISS OBJECT XT
OBJECT_ID      = 1998-067XT
CENTER_NAME    = EARTH
REF_FRAME      = TEME
TIME_SYSTEM    = UTC
MEAN_ELEMENT_THEORY = SGP/SGP4

EPOCH          = 2026-03-13T08:07:34.392000
MEAN_MOTION    = 15.70505609
ECCENTRICITY   = .0004699
INCLINATION    = 51.6247
RA_OF_ASC_NODE = 47.0068
ARG_OF_PERICENTER = 104.7322
MEAN_ANOMALY   = 255.4197

EPHEMERIS_TYPE = 0
CLASSIFICATION_TYPE = U
NORAD_CAT_ID   = 66907
ELEMENT_SET_NO = 999
REV_AT_EPOCH   = 1575
BSTAR          = .13594594E-2
MEAN_MOTION_DOT = .173594E-2
MEAN_MOTION_DDOT = 0

CCSDS_OMM_VERS = 2.0
CREATION_DATE  = 
ORIGINATOR     = 

OBJECT_NAME    = ISS OBJECT XU
OBJECT_ID      = 1998-067XU
CENTER_NAME    = EARTH
REF_FRAME      = TEME
TIME_SYSTEM    = UTC
MEAN_ELEMENT_THEORY = SGP/SGP4

EPOCH          = 2026-03-13T11:07:47.046144
MEAN_MOTION    = 15.70686547
ECCENTRICITY   = .00048973
INCLINATION    = 51.6245
RA_OF_ASC_NODE = 46.3387
ARG_OF_PERICENTER = 107.7206
MEAN_ANOMALY   = 252.4326

EPHEMERIS_TYPE = 0
CLASSIFICATION_TYPE = U
NORAD_CAT_ID   = 66908
ELEMENT_SET_NO = 999
REV_AT_EPOCH   = 1577
BSTAR          = .13010322E-2
MEAN_MOTION_DOT = .16725E-2
MEAN_MOTION_DDOT = 0

CCSDS_OMM_VERS = 2.0
CREATION_DATE  = 
ORIGINATOR     = 

OBJECT_NAME    = SILVERSAT
OBJECT_ID      = 1998-067XV
CENTER_NAME    = EARTH
REF_FRAME      = TEME
TIME_SYSTEM    = UTC
MEAN_ELEMENT_THEORY = SGP/SGP4

EPOCH          = 2026-03-13T07:56:09.861216
MEAN_MOTION    = 15.73849745
ECCENTRICITY   = .00054068
INCLINATION    = 51.6245
RA_OF_ASC_NODE = 46.1985
ARG_OF_PERICENTER = 105.6574
MEAN_ANOMALY   = 254.5022

EPHEMERIS_TYPE = 0
CLASSIFICATION_TYPE = U
NORAD_CAT_ID   = 66909
ELEMENT_SET_NO = 999
REV_AT_EPOCH   = 1576
BSTAR          = .15396189E-2
MEAN_MOTION_DOT = .22821E-2
MEAN_MOTION_DDOT = 0

CCSDS_OMM_VERS = 2.0
CREATION_DATE  = 
ORIGINATOR     = 

OBJECT_NAME    = ISS OBJECT XW
OBJECT_ID      = 1998-067XW
CENTER_NAME    = EARTH
REF_FRAME      = TEME
TIME_SYSTEM    = UTC
MEAN_ELEMENT_THEORY = SGP/SGP4

EPOCH          = 2026-03-13T04:59:13.857792
MEAN_MOTION    = 15.69697037
ECCENTRICITY   = .00053164
INCLINATION    = 51.6244
RA_OF_ASC_NODE = 47.6269
ARG_OF_PERICENTER = 107.7849
MEAN_ANOMALY   = 252.3729

EPHEMERIS_TYPE = 0
CLASSIFICATION_TYPE = U
NORAD_CAT_ID   = 66910
ELEMENT_SET_NO = 999
REV_AT_EPOCH   = 1573
BSTAR          = .12698754E-2
MEAN_MOTION_DOT = .156438E-2
MEAN_MOTION_DDOT = 0

CCSDS_OMM_VERS = 2.0
CREATION_DATE  = 
ORIGINATOR     = 

OBJECT_NAME    = ISS OBJECT XX
OBJECT_ID      = 1998-067XX
CENTER_NAME    = EARTH
REF_FRAME      = TEME
TIME_SYSTEM    = UTC
MEAN_ELEMENT_THEORY = SGP/SGP4

EPOCH          = 2026-03-13T04:38:14.491392
MEAN_MOTION    = 15.77377567
ECCENTRICITY   = .00068943
INCLINATION    = 51.6209
RA_OF_ASC_NODE = 46.0092
ARG_OF_PERICENTER = 108.6914
MEAN_ANOMALY   = 251.4835

EPHEMERIS_TYPE = 0
CLASSIFICATION_TYPE = U
NORAD_CAT_ID   = 66911
ELEMENT_SET_NO = 999
REV_AT_EPOCH   = 1574
BSTAR          = .1694988E-2
MEAN_MOTION_DOT = .295789E-2
MEAN_MOTION_DDOT = 0

