E-KAGAKU-1              
1 65943U 98067XQ  26072.31297397  .00236005  00000+0  11129-2 0  9996
2 65943  51.6233  38.5579 0005696  99.5179 260.6467 15.81842071 24073
HRC MONOBLOCK CAMERA    
1 66052U 98067XR  26072.28215557  .00055964  00000+0  61502-3 0  9996
2 66052  51.6278  47.3965 0003816 109.8372 250.3034 15.62620622 22959
HTV-X1                  
1 66174U 25241A   26072.42552678  .00014595  00000+0  62687-3 0  9999
2 66174  51.6353  55.0787 0005760 183.8769 176.2164 15.22885644 21523
SZ-21 MODULE            
1 66515U 25246C   26072.57488950  .00042463  00000+0  36005-3 0  9990
2 66515  41.4731 179.4377 0001010 309.0341  51.0410 15.68874146 18689
SHENZHOU-22             
1 66645U 25272A   26072.55482282  .00030215  00000+0  35350-3 0  9997
2 66645  41.4662 184.6407 0006739 297.0069  63.0081 15.60878289267524
SOYUZ-MS 28             
1 66664U 25275A   26072.38526547  .00010392  00000+0  19895-3 0  9995
2 66664  51.6324  54.0842 0007909 188.2233 171.8627 15.48625615554522
DUPLEX                  
1 66906U 98067XS  26072.43875425  .00030156  00000+0  42283-3 0  9998
2 66906  51.6291  50.6945 0002664 127.4743 232.6492 15.56488826 15713
ISS OBJECT XT           
1 66907U 98067XT  26072.33859250  .00173594  00000+0  13595-2 0  9993
2 66907  51.6247  47.0068 0004699 104.7322 255.4197 15.70505609 15756
ISS OBJECT XU           
1 66908U 98067XU  26072.46373896  .00167250  00000+0  13010-2 0  9999
2 66908  51.6245  46.3387 0004897 107.7206 252.4326 15.70686547 15779
SILVERSAT               
1 66909U 98067XV  26072.33066969  .00228210  00000+0  15396-2 0  9999
2 66909  51.6245  46.1985 0005406 105.6574 254.5022 15.73849745 15763
ISS OBJECT XW           
1 66910U 98067XW  26072.20779928  .00156438  00000+0  12699-2 0  9998
2 66910  51.6244  47.6269 0005316 107.7849 252.3729 15.69697037 15730
ISS OBJECT XX           
1 66911U 98067XX  26072.19322328  .00295789  00000+0  16950-2 0  9992
2 66911  51.6209  46.0092 0006894 108.6914 251.4835 15.77377567 15745
